YOUTHSAT                
1 37388U 11015B   25280.96376780  .00000375  00000+0  17596-3 0  9995
2 37388  98.3390 261.8586 0014765   7.8160  19.0873 14.25463843751702
APRIZESAT 6             
1 37793U 11044F   25280.72983019  .00001333  00000+0  19724-3 0  9990
2 37793  98.2454 180.9800 0043649 171.5927 209.1057 14.76321368759890
JUGNU                   
1 37839U 11058B   25280.69765354  .00000595  00000+0  17089-3 0  9993
2 37839  19.9615  42.2627 0018514 167.6904 327.2997 14.13653864723257
SRMSAT                  
1 37841U 11058D   25280.93515862  .00000508  00000+0  13201-3 0  9996
2 37841  19.9710 146.2056 0011695 308.7776 183.8994 14.11477456722133
SUOMI NPP               
1 37849U 11061A   25280.93053995  .00000148  00000+0  90968-4 0  9998
2 37849  98.7655 218.8997 0001467  22.3190 337.8049 14.19527140722652
YAOGAN-12               
1 37875U 11066B   25280.97808096  .00012002  00000+0  49777-3 0  9999
2 37875  97.1523 326.4266 0008456  49.1632 311.0338 15.23977746773609
ZIYUAN 3-1 (ZY 3-1)     
1 38046U 12001A   25280.98355095  .00061755  00000+0  78263-3 0  9998
2 38046  97.1875 346.3149 0002670 191.2913 168.8284 15.59269678764698
BEIDOU-2 M4             
1 38251U 12018B   25279.67693356 -.00000029  00000+0  00000+0 0  9991
2 38251  55.8768 312.6468 0015642 268.5067  91.3784  1.86231992 91229
ARIRANG-3 (KOMPSAT-3)   
1 38338U 12025B   25280.95638532  .00000904  00000+0  19168-3 0  9993
2 38338  98.3198 235.0965 0006103 158.8106 201.3349 14.61581605714498
HORYU-2                 
1 38340U 12025D   25280.26813410  .00005509  00000+0  59710-3 0  9993
2 38340  98.1909  38.7788 0007556 290.3247  69.7157 14.88614777711060
CSSWE                   
1 38761U 12048D   25280.20392388  .00025763  00000+0  77773-3 0  9998
2 38761  64.6634 221.0244 0102761 243.9817 115.0704 15.29089999 77511
CP5                     
1 38763U 12048F   25280.39826847  .00017006  00000+0  65795-3 0  9994
2 38763  64.6467 263.0659 0126627 247.0224 111.7501 15.19131021 78249
METOP-B                 
1 38771U 12049A   25280.90476019  .00000187  00000+0  10579-3 0  9995
2 38771  98.6905 331.9448 0002347  21.5861 338.5415 14.21372915677426
SJ-9A                   
1 38860U 12056A   25280.97706186  .00002312  00000+0  27740-3 0  9990
2 38860  97.6396 257.6877 0026297  11.2885 348.8915 14.84724167662152
COSMOS 2484             
1 39059U 13001C   25280.95826601  .00000033  00000+0  16480-3 0  9992
2 39059  82.5078  18.7363 0026092 221.3940 138.5164 12.42927702577223
SARAL                   
1 39086U 13009A   25280.94173805  .00000182  00000+0  82768-4 0  9998
2 39086  98.5543 105.7226 0001357 349.2204  10.8951 14.32723495659481
AAUSAT 3                
1 39087U 13009B   25280.90293699  .00001198  00000+0  39838-3 0  9996
2 39087  98.3673 105.5526 0010508 248.5085 111.4983 14.39439060660878
STRAND-1                
1 39090U 13009E   25280.45000695  .00000549  00000+0  19984-3 0  9991
2 39090  98.3852 102.0378 0007562 266.6386  93.3936 14.36919773660764
BRITE-AUSTRIA           
1 39091U 13009F   25280.49902625  .00000358  00000+0  13694-3 0  9990
2 39091  98.3915 101.3233 0009058 275.6160  84.3993 14.36378608660779
UNIBRITE                
1 39092U 13009G   25280.48867616  .00000349  00000+0  13427-3 0  9994
2 39092  98.3955 101.3609 0007988 271.6454  88.3818 14.36250223660719
AIST-2 (RS-43)          
1 39133U 13015D   25280.96382370  .00010610  00000+0  46029-3 0  9995
2 39133  64.8727 359.8347 0031364 265.3116  94.4430 15.22319904685453
GAOFEN-1                
1 39150U 13018A   25280.96685315  .00001140  00000+0  17039-3 0  9999
2 39150  97.9397 352.7634 0017639   3.2144 356.9177 14.76555694671020
NEE-01 PEGASO           
1 39151U 13018B   25280.83294377  .00005482  00000+0  55071-3 0  9991
2 39151  98.0894  52.5414 0012148 275.0648  84.9183 14.91647004673058
TURKSAT-3USAT           
1 39152U 13018C   25280.81527818  .00006002  00000+0  56733-3 0  9994
2 39152  97.8058   7.9832 0011854 216.8280 143.2126 14.94010501673374
CUBEBUG-1 (CAPITAN BETO)
1 39153U 13018D   25280.84423426  .00006332  00000+0  58717-3 0  9998
2 39153  98.1367  65.4653 0011314 262.5255  97.4679 14.94775807673339
PROBA-V                 
1 39159U 13021A   25280.93161828  .00000128  00000+0  74319-4 0  9997
2 39159  98.3331 267.4017 0004853 138.7596 221.3951 14.23522324645222
ESTCUBE 1               
1 39161U 13021C   25280.89658328  .00002966  00000+0  39618-3 0  9995
2 39161  97.7676 338.6038 0009752 115.1918 245.0307 14.80234685667689
ARIRANG-5 (KOMPSAT-5)   
1 39227U 13042A   25280.23472267 -.00000436  00000+0 -26858-4 0  9990
2 39227  97.6207 105.4716 0001026 293.6295  66.4824 15.04487441665820
GONETS-M 5              
1 39249U 13048A   25280.91713343  .00000062  00000+0  37234-3 0  9990
2 39249  82.4809 140.6623 0017140  43.7589 316.4846 12.42870452547543
GONETS-M 7              
1 39251U 13048C   25280.88517249  .00000055  00000+0  32781-3 0  9990
2 39251  82.4880 143.4720 0017984  44.7356 315.5170 12.42903518547497
FENGYUN 3C              
1 39260U 13052A   25280.94413133  .00000167  00000+0  10626-3 0  9997
2 39260  98.4684 261.8582 0015383  33.4314 326.7829 14.15665288622879
CASSIOPE                
1 39265U 13055A   25280.88881936  .00059734 -52158-7  86431-3 0  9999
2 39265  80.9424   8.7018 0364716 181.5534 178.4596 15.05094788629444
APRIZESAT 7             
1 39416U 13066A   25280.84140123  .00002536  00000+0  26203-3 0  9990
2 39416  97.7347 233.3899 0035696 330.3179  29.6013 14.90562229643626
ZACUBE-1 (TSHEPISOSAT)  
1 39417U 13066B   25280.35309105  .00008587  00000+0  71897-3 0  9995
2 39417  97.7931 236.8950 0043181  14.5746 345.6710 14.97957344642831
APRIZESAT 8             
1 39425U 13066K   25280.85120823  .00002480  00000+0  27870-3 0  9995
2 39425  97.7882 227.4717 0047752  37.7846 322.6706 14.86809916642163
CINEMA-3 (KHUSAT-2)     
1 39426U 13066L   25280.25414055  .00003131  00000+0  42045-3 0  9998
2 39426  97.8400 194.1476 0090593 312.2923  47.0633 14.77208201637094
TRITON-1                
1 39427U 13066M   25280.93383380  .00005962  00000+0  74174-3 0  9992
2 39427  97.8284 191.6521 0092513 336.7369  22.9668 14.79868573636755
DELFI-N3XT              
1 39428U 13066N   25280.70854441  .00013811  00000+0  13408-2 0  9993
2 39428  97.8294 197.0948 0080672 325.8971  33.7079 14.90294278636957
GOMX-1                  
1 39430U 13066Q   25280.87035978  .00003326  00000+0  51474-3 0  9996
2 39430  97.6678 132.1108 0131482 166.6325 193.8421 14.68168392632870
BRITE-PL1 (LEM)         
1 39431U 13066R   25280.82762390  .00001266  00000+0  26178-3 0  9991
2 39431  97.7729  46.6969 0192690  76.3379 285.9192 14.50854954627337
ICUBE-1                 
1 39432U 13066S   25280.40039944  .00015429  00000+0  76729-3 0  9991
2 39432  97.5485 259.7727 0021880 129.5722 230.7449 15.17509475645960
HUMSAT-D                
1 39433U 13066T   25280.96384479  .00082973  00000+0  17223-2 0  9990
2 39433  97.5055 279.7589 0011105  62.0723 298.1648 15.45333275647597
VELOX-PII               
1 39438U 13066Y   25280.55450434  .00005122  00000+0  51026-3 0  9996
2 39438  97.8415 227.5132 0057248  98.8810 261.8895 14.90806844640165
FIRST-MOVE              
1 39439U 13066Z   25280.44755209  .00075944  00000+0  19179-2 0  9994
2 39439  97.7504 260.3655 0014713 285.1021  74.8596 15.39431379643270
CUBEBUG-2 (LO-74)       
1 39440U 13066AA  25280.78929131  .00006130  00000+0  60394-3 0  9997
2 39440  97.8595 224.6400 0061958 141.6788 218.8857 14.90964078639349
NEE-02 KRYSAOR          
1 39441U 13066AB  25280.75592678  .00003081  00000+0  35288-3 0  9993
2 39441  97.8628 217.4081 0068098 175.5227 184.6612 14.85021734638714
FUNCUBE-1 (AO-73)       
1 39444U 13066AE  25280.84028150  .00016254  00000+0  11490-2 0  9999
2 39444  97.7970 243.4255 0039667 343.4900  16.5031 15.04326319641656
HINCUBE                 
1 39445U 13066AF  25280.42175246  .00012003  00000+0  87462-3 0  9994
2 39445  97.7657 241.5279 0036008 352.7930   7.2773 15.03374987641480
UWE-3                   
1 39446U 13066AG  25280.40708962  .00007090  00000+0  65109-3 0  9994
2 39446  97.8359 230.8088 0054101  81.7245 279.0104 14.94020100639794
SMDC ONE 2.4            
1 39469U 13072H   25280.43183048  .00016711  00000+0  72574-3 0  9995
2 39469 120.4947 101.7201 0172672 100.5865 261.4702 15.10145469 79545
CP8 (IPEX)              
1 39471U 13072K   25280.89832033  .00017036  00000+0  87398-3 0  9994
2 39471 120.4693  63.7104 0189367  90.8165 271.4601 15.02564868 77241
COSMOS 2488             
1 39483U 13076A   25280.92139780  .00000062  00000+0  37447-3 0  9995
2 39483  82.4859 325.9135 0017925 285.6309  74.2792 12.42867504534552
COSMOS 2489             
1 39484U 13076B   25280.89367480  .00000061  00000+0  37094-3 0  9999
2 39484  82.4898 327.2301 0019698 285.9662  73.9248 12.42869181534601
COSMOS 2490             
1 39485U 13076C   25280.94564758  .00000043  00000+0  24148-3 0  9999
2 39485  82.4835 325.3741 0019955 302.9373  56.9787 12.42866597534545
AIST-1 (RS-41)          
1 39492U 13078C   25280.92898497  .00002879  00000+0  26050-3 0  9990
2 39492  82.4168 155.0737 0018467  46.3442 313.9306 14.94965405637542
KAZEOSAT 1              
1 39731U 14024A   25280.94234363  .00000353  00000+0  12050-3 0  9996
2 39731  98.3500 354.3047 0001114  99.9054 260.2262 14.42058399602204
COSMOS 2496             
1 39761U 14028A   25280.90349676  .00000033  00000+0  16964-3 0  9996
2 39761  82.4407 266.7229 0018439 270.7745  89.1222 12.42895321516175
COSMOS 2497             
1 39762U 14028B   25280.96031006  .00000027  00000+0  12543-3 0  9990
2 39762  82.4455 268.2795 0018938 264.8703  95.0215 12.42867507516180
COSMOS 2498             
1 39763U 14028C   25280.95743365  .00000025  00000+0  11208-3 0  9993
2 39763  82.4416 266.8783 0019649 264.3321  95.5518 12.42969087516211
